MONITOR-3 (RS58S)       
1 57180U 23091Q   26130.20155500  .00006313  00000+0  24014-3 0  9992
2 57180  97.5104 193.3881 0010821 227.3887 132.6440 15.27078187158494
MONITOR-4 (RS57S)       
1 57182U 23091S   26130.18297618  .00006683  00000+0  25331-3 0  9991
2 57182  97.5098 193.3380 0010782 227.8308 132.2015 15.27175696158498
MONITOR-2 (RS39S)       
1 57184U 23091U   26130.16412655  .00003341  00000+0  16492-3 0  9997
2 57184  97.5097 188.6980 0009903 240.2573 119.7676 15.18556881158186
SVYATOBOR 1 (RS60S)     
1 57187U 23091X   26130.16474789  .00005849  00000+0  23040-3 0  9998
2 57187  97.5109 193.7871 0008691 217.6761 142.3870 15.25966375158515
HORS 1                  
1 57188U 23091Y   26130.15277256  .00006142  00000+0  24112-3 0  9996
2 57188  97.5088 193.5426 0008162 217.2293 142.8380 15.26060656158514
VIZARD-METEO (RS38S)    
1 57189U 23091Z   26130.15185618  .00011473  00000+0  34184-3 0  9990
2 57189  97.5106 198.9092 0007398 194.5875 165.5155 15.34824046158856
SITRO-AIS 6 (CHIRKIN)   
1 57192U 23091AC  26130.20178684  .00003804  00000+0  15418-3 0  9993
2 57192  97.5088 193.0781 0010655 234.2238 125.8010 15.25230055158495
SITRO-AIS 8 (ANOKHIN)   
1 57193U 23091AD  26130.19335968  .00009054  00000+0  30341-3 0  9997
2 57193  97.5075 195.1934 0009794 225.4992 134.5449 15.31113726158637
SITRO-AIS 7 (FARTUSHNIY)
1 57194U 23091AE  26130.19739829  .00003532  00000+0  14463-3 0  9994
2 57194  97.5086 192.9177 0010481 235.4300 124.5949 15.24936897158484
AVION KALUGA 650        
1 57195U 23091AF  26130.18073183  .00003721  00000+0  17612-3 0  9997
2 57195  97.5113 189.9181 0009117 237.3968 122.6387 15.19947398158254
HORS 2                  
1 57196U 23091AG  26130.19985451  .00008837  00000+0  29806-3 0  9990
2 57196  97.5105 196.7379 0007774 207.4941 152.5890 15.30928840158713
A-SEANSAT-PG1           
1 57197U 23091AH  26130.16726711  .00011728  00000+0  34034-3 0  9992
2 57197  97.5096 198.9751 0007171 203.0308 157.0614 15.35649397158874
SITRO-AIS 10 (BURDAEV)  
1 57199U 23091AK  26130.18425149  .00011544  00000+0  31902-3 0  9994
2 57199  97.5094 199.8598 0006775 195.6854 164.4181 15.37185999158926
SITRO-AIS 9 (SHCHUKIN)  
1 57201U 23091AM  26130.19913155  .00011876  00000+0  33289-3 0  9996
2 57201  97.5093 199.6336 0006989 196.2906 163.8114 15.36733879158912
UTMN 2 (RS27S)          
1 57203U 23091AP  26130.16617139  .00008542  00000+0  28649-3 0  9998
2 57203  97.5104 196.8856 0007780 203.1005 156.9887 15.31120037158721
SITRO-AIS 12 (SMIRENNIY)
1 57204U 23091AQ  26130.19684075  .00012034  00000+0  33426-3 0  9995
2 57204  97.5105 200.0749 0006792 190.1198 169.9911 15.37017343158938
SITRO-AIS 11 (SHEFFER)  
1 57208U 23091AU  26130.15521896  .00013699  00000+0  37535-3 0  9999
2 57208  97.5104 200.2561 0006709 189.9669 170.1443 15.37409411158948
H2SAT (HEINRICH HERTZ)  
1 57213U 23093A   26129.92336170  .00000010  00000+0  00000+0 0  9995
2 57213   0.0177 241.4721 0000633 206.0136 113.3487  1.00264731 10536
KUZGTU 1 (RS47S)        
1 57217U 23091AV  26130.15143443  .00007811  00000+0  27974-3 0  9992
2 57217  97.5083 194.2671 0010202 223.7626 136.2806 15.28991834158560
QIANKUN-1               
1 57422U 23103B   26129.82900072  .00091293  53618-5  10817-3 0  9999
2 57422  96.1660 177.3188 0028950 122.9319 237.4757 16.07661747161138
FENGYUN 3F              
1 57490U 23111A   26130.20472800  .00000019  00000+0  29381-4 0  9994
2 57490  98.6860 200.9180 0001177 115.8388 244.2910 14.19932316143474
HJ-2F                   
1 57519U 23116A   26130.18676948  .00005006  00000+0  22347-3 0  9992
2 57519  97.3861 136.0838 0009240 163.0529 197.1018 15.21784481152975
XRISM                   
1 57800U 23137A   26130.04119757  .00003388  00000+0  18614-3 0  9996
2 57800  31.0019 246.6313 0007681 299.1474  60.8396 15.12147494147089
METEOR-M2 4             
1 59051U 24039A   26130.19868586  .00000019  00000+0  28237-4 0  9996
2 59051  98.6989  89.9798 0005948 282.7828  77.2685 14.22425604113868
GRBBETA                 
1 60237U 24128C   26129.98778743  .00002637  00000+0  18909-3 0  9995
2 60237  61.9911 350.2568 0045645 126.7287 233.8011 15.06325443100511
TRANSPORTER-11 OBJECT A 
1 60468U 24149A   26130.15363913  .00006060  00000+0  19686-3 0  9991
2 60468  97.3729 210.2204 0003308  26.4343 333.7067 15.32293858 96235
WARATAH SEED-1          
1 60469U 24149B   26130.18190998  .00008585  00000+0  25521-3 0  9995
2 60469  97.3687 210.7505 0002055  49.4912 310.6510 15.34996372 96288
PHISAT 2                
1 60470U 24149C   26130.19854881  .00004821  00000+0  16598-3 0  9999
2 60470  97.3754 209.6426 0002475  60.0027 300.1459 15.30515588 96183
LEMUR-2-TOMATOKECHUP    
1 60471U 24149D   26130.18247422  .00007000  00000+0  20691-3 0  9997
2 60471  97.3794 212.1574 0002181  55.2721 304.8727 15.35249678 96337
