OBJECT_NAME,OBJECT_ID,EPOCH,MEAN_MOTION,ECCENTRICITY,INCLINATION,RA_OF_ASC_NODE,ARG_OF_PERICENTER,MEAN_ANOMALY,EPHEMERIS_TYPE,CLASSIFICATION_TYPE,NORAD_CAT_ID,ELEMENT_SET_NO,REV_AT_EPOCH,BSTAR,MEAN_MOTION_DOT,MEAN_MOTION_DDOT
MONITOR-3 (RS58S),2023-091Q,2026-05-10T04:50:14.352000,15.27078187,.0010821,97.5104,193.3881,227.3887,132.6440,0,U,57180,999,15849,.24014E-3,.6313E-4,0
MONITOR-4 (RS57S),2023-091S,2026-05-10T04:23:29.141952,15.27175696,.0010782,97.5098,193.3380,227.8308,132.2015,0,U,57182,999,15849,.25331E-3,.6683E-4,0
MONITOR-2 (RS39S),2023-091U,2026-05-10T03:56:20.533920,15.18556881,.0009903,97.5097,188.6980,240.2573,119.7676,0,U,57184,999,15818,.16492E-3,.3341E-4,0
SVYATOBOR 1 (RS60S),2023-091X,2026-05-10T03:57:14.217696,15.25966375,.0008691,97.5109,193.7871,217.6761,142.3870,0,U,57187,999,15851,.2304E-3,.5849E-4,0
HORS 1,2023-091Y,2026-05-10T03:39:59.549184,15.26060656,.0008162,97.5088,193.5426,217.2293,142.8380,0,U,57188,999,15851,.24112E-3,.6142E-4,0
VIZARD-METEO (RS38S),2023-091Z,2026-05-10T03:38:40.373952,15.34824046,.0007398,97.5106,198.9092,194.5875,165.5155,0,U,57189,999,15885,.34184E-3,.11473E-3,0
SITRO-AIS 6 (CHIRKIN),2023-091AC,2026-05-10T04:50:34.382976,15.25230055,.0010655,97.5088,193.0781,234.2238,125.8010,0,U,57192,999,15849,.15418E-3,.3804E-4,0
SITRO-AIS 8 (ANOKHIN),2023-091AD,2026-05-10T04:38:26.276352,15.31113726,.0009794,97.5075,195.1934,225.4992,134.5449,0,U,57193,999,15863,.30341E-3,.9054E-4,0
SITRO-AIS 7 (FARTUSHNIY),2023-091AE,2026-05-10T04:44:15.212256,15.24936897,.0010481,97.5086,192.9177,235.4300,124.5949,0,U,57194,999,15848,.14463E-3,.3532E-4,0
AVION KALUGA 650,2023-091AF,2026-05-10T04:20:15.230112,15.19947398,.0009117,97.5113,189.9181,237.3968,122.6387,0,U,57195,999,15825,.17612E-3,.3721E-4,0
HORS 2,2023-091AG,2026-05-10T04:47:47.429664,15.30928840,.0007774,97.5105,196.7379,207.4941,152.5890,0,U,57196,999,15871,.29806E-3,.8837E-4,0
A-SEANSAT-PG1,2023-091AH,2026-05-10T04:00:51.878304,15.35649397,.0007171,97.5096,198.9751,203.0308,157.0614,0,U,57197,999,15887,.34034E-3,.11728E-3,0
SITRO-AIS 10 (BURDAEV),2023-091AK,2026-05-10T04:25:19.328736,15.37185999,.0006775,97.5094,199.8598,195.6854,164.4181,0,U,57199,999,15892,.31902E-3,.11544E-3,0
SITRO-AIS 9 (SHCHUKIN),2023-091AM,2026-05-10T04:46:44.965920,15.36733879,.0006989,97.5093,199.6336,196.2906,163.8114,0,U,57201,999,15891,.33289E-3,.11876E-3,0
UTMN 2 (RS27S),2023-091AP,2026-05-10T03:59:17.208096,15.31120037,.000778,97.5104,196.8856,203.1005,156.9887,0,U,57203,999,15872,.28649E-3,.8542E-4,0
SITRO-AIS 12 (SMIRENNIY),2023-091AQ,2026-05-10T04:43:27.040800,15.37017343,.0006792,97.5105,200.0749,190.1198,169.9911,0,U,57204,999,15893,.33426E-3,.12034E-3,0
SITRO-AIS 11 (SHEFFER),2023-091AU,2026-05-10T03:43:30.918144,15.37409411,.0006709,97.5104,200.2561,189.9669,170.1443,0,U,57208,999,15894,.37535E-3,.13699E-3,0
H2SAT (HEINRICH HERTZ),2023-093A,2026-05-09T22:09:38.450880,1.00264731,.0000633,0.0177,241.4721,206.0136,113.3487,0,U,57213,999,1053,0,.1E-6,0
KUZGTU 1 (RS47S),2023-091AV,2026-05-10T03:38:03.934752,15.28991834,.0010202,97.5083,194.2671,223.7626,136.2806,0,U,57217,999,15856,.27974E-3,.7811E-4,0
QIANKUN-1,2023-103B,2026-05-09T19:53:45.662208,16.07661747,.00289507,96.1660,177.3188,122.9319,237.4757,0,U,57422,999,16113,.10816819E-3,.91293E-3,.5361777E-5
FENGYUN 3F,2023-111A,2026-05-10T04:54:48.499200,14.19932316,.0001177,98.6860,200.9180,115.8388,244.2910,0,U,57490,999,14347,.29381E-4,.19E-6,0
HJ-2F,2023-116A,2026-05-10T04:28:56.883072,15.21784481,.000924,97.3861,136.0838,163.0529,197.1018,0,U,57519,999,15297,.22347E-3,.5006E-4,0
XRISM,2023-137A,2026-05-10T00:59:19.470048,15.12147494,.0007681,31.0019,246.6313,299.1474,60.8396,0,U,57800,999,14708,.18614E-3,.3388E-4,0
METEOR-M2 4,2024-039A,2026-05-10T04:46:06.458304,14.22425604,.0005948,98.6989,89.9798,282.7828,77.2685,0,U,59051,999,11386,.28237E-4,.19E-6,0
GRBBETA,2024-128C,2026-05-09T23:42:24.833952,15.06325443,.0045645,61.9911,350.2568,126.7287,233.8011,0,U,60237,999,10051,.18909E-3,.2637E-4,0
TRANSPORTER-11 OBJECT A,2024-149A,2026-05-10T03:41:14.420832,15.32293858,.0003308,97.3729,210.2204,26.4343,333.7067,0,U,60468,999,9623,.19686E-3,.606E-4,0
WARATAH SEED-1,2024-149B,2026-05-10T04:21:57.022272,15.34996372,.0002055,97.3687,210.7505,49.4912,310.6510,0,U,60469,999,9628,.25521E-3,.8585E-4,0
PHISAT 2,2024-149C,2026-05-10T04:45:54.617184,15.30515588,.0002475,97.3754,209.6426,60.0027,300.1459,0,U,60470,999,9618,.16598E-3,.4821E-4,0
LEMUR-2-TOMATOKECHUP,2024-149D,2026-05-10T04:22:45.772608,15.35249678,.0002181,97.3794,212.1574,55.2721,304.8727,0,U,60471,999,9633,.20691E-3,.7E-4,0
